{
  "norad_id": 56880,
  "name": "STARLINK-6177",
  "history": [
    {
      "epoch": "2026-03-28T22:00:01.999584Z",
      "apogee_km": 500.762426783037,
      "perigee_km": 499.30150369482,
      "latitude_deg": 29.961065641881405,
      "longitude_deg": -38.211163053380275,
      "height_km": 501.32496725900893,
      "semi_major_axis_km": 6878.168965238928,
      "eccentricity": 0.0001062,
      "inclination_deg": 43.0011,
      "raan_deg": 336.0597,
      "arg_perigee_deg": 304.1117,
      "mean_anomaly_deg": 189.023,
      "mean_motion_rev_day": 15.21925878
    },
    {
      "epoch": "2026-03-29T04:00:01.999584Z",
      "apogee_km": 500.32154877482935,
      "perigee_km": 498.21018609452676,
      "latitude_deg": 38.04237340443392,
      "longitude_deg": 144.63706569468096,
      "height_km": 502.13864911584454,
      "semi_major_axis_km": 6877.402867434678,
      "eccentricity": 0.0001535,
      "inclination_deg": 43.0003,
      "raan_deg": 334.6614,
      "arg_perigee_deg": 284.1125,
      "mean_anomaly_deg": 140.1249,
      "mean_motion_rev_day": 15.22180184
    },
    {
      "epoch": "2026-03-30T04:00:01.999584Z",
      "apogee_km": 497.96952962674277,
      "perigee_km": 496.30433827993875,
      "latitude_deg": 19.17841939810127,
      "longitude_deg": -120.28131039936845,
      "height_km": 496.7272045131159,
      "semi_major_axis_km": 6875.27393395334,
      "eccentricity": 0.0001211,
      "inclination_deg": 43.001,
      "raan_deg": 329.0614,
      "arg_perigee_deg": 262.9133,
      "mean_anomaly_deg": 248.3953,
      "mean_motion_rev_day": 15.22887255
    },
    {
      "epoch": "2026-03-30T06:00:02.000160Z",
      "apogee_km": 497.98490258899074,
      "perigee_km": 495.6533299717157,
      "latitude_deg": -39.62612730187205,
      "longitude_deg": -67.04530562289182,
      "height_km": 507.54831420646855,
      "semi_major_axis_km": 6874.956116280353,
      "eccentricity": 0.00016957,
      "inclination_deg": 43.0005,
      "raan_deg": 328.5939,
      "arg_perigee_deg": 248.189,
      "mean_anomaly_deg": 0.5334,
      "mean_motion_rev_day": 15.22992857
    }
  ]
}